OBJECT_NAME,OBJECT_ID,EPOCH,MEAN_MOTION,ECCENTRICITY,INCLINATION,RA_OF_ASC_NODE,ARG_OF_PERICENTER,MEAN_ANOMALY,EPHEMERIS_TYPE,CLASSIFICATION_TYPE,NORAD_CAT_ID,ELEMENT_SET_NO,REV_AT_EPOCH,BSTAR,MEAN_MOTION_DOT,MEAN_MOTION_DDOT
IRIDIUM 156,2018-061H,2026-06-09T05:36:22.149216,14.34219891,.0002103,86.3965,60.0550,80.5832,279.5602,0,U,43576,999,41223,.69808E-4,.215E-5,0
IRIDIUM 164,2018-061J,2026-06-09T10:10:22.425024,14.34217483,.0002074,86.3967,60.0156,88.5148,271.6285,0,U,43577,999,41230,.24919E-4,.9E-6,0
IRIDIUM 159,2018-061K,2026-06-09T11:05:10.401216,14.34216894,.0002323,86.3966,59.9369,84.7054,275.4407,0,U,43578,999,41227,.67402E-4,.209E-5,0
IRIDIUM 180,2019-002A,2026-06-09T12:44:54.909312,14.34217921,.0002249,86.3972,356.7990,89.1614,270.9839,0,U,43922,999,38789,.65956E-5,.38E-6,0
IRIDIUM 176,2019-002B,2026-06-09T11:29:13.903296,14.72256838,.0002216,86.6093,356.7653,91.1113,269.0358,0,U,43923,999,39811,.11157E-3,.728E-5,0
IRIDIUM 168,2019-002C,2026-06-09T10:55:18.979392,14.34217665,.0002176,86.3975,356.9079,89.0031,271.1414,0,U,43924,999,38786,.52432E-5,.34E-6,0
IRIDIUM 173,2019-002D,2026-06-09T12:17:30.869376,14.34217340,.0002242,86.3972,356.7731,86.4740,273.6713,0,U,43925,999,38785,.13388E-4,.57E-6,0
IRIDIUM 169,2019-002E,2026-06-09T09:25:06.421152,14.38610903,.000213,86.4233,28.4526,70.4730,289.6698,0,U,43926,999,38910,.71085E-4,.237E-5,0
IRIDIUM 172,2019-002F,2026-06-09T12:08:22.786656,14.34218726,.0002286,86.3971,356.7836,88.8646,271.2811,0,U,43927,999,38786,.31621E-4,.108E-5,0
IRIDIUM 175,2019-002G,2026-06-09T10:38:16.863936,14.43608463,.0001495,86.4507,293.7585,210.5715,149.5399,0,U,43928,999,39786,.82698E-4,.3E-5,0
IRIDIUM 171,2019-002H,2026-06-09T11:40:58.791648,14.34218921,.0002009,86.3980,357.0970,86.8339,273.3086,0,U,43929,999,38785,.4332E-4,.141E-5,0
IRIDIUM 170,2019-002J,2026-06-09T11:38:08.136096,14.72257235,.0002364,86.6092,356.7654,87.8042,272.3445,0,U,43930,999,39812,.11028E-3,.72E-5,0
IRIDIUM 167,2019-002K,2026-06-09T11:31:50.899872,14.34217610,.0001857,86.3972,356.8165,86.5384,273.6025,0,U,43931,999,38785,.22538E-5,.26E-6,0
IRIDIUM 181,2023-068S,2026-06-09T11:31:31.583424,14.43310549,.0002293,86.4503,60.0122,90.7196,269.4267,0,U,56726,999,16132,.80135E-4,.29E-5,0
IRIDIUM 177,2023-068T,2026-06-09T11:32:18.020832,14.80216629,.0002451,86.1957,332.4521,88.5760,271.5742,0,U,56727,999,16522,.12861E-3,.1003E-4,0
IRIDIUM 174,2023-068U,2026-06-09T11:20:20.550048,14.72253295,.0002572,86.6100,356.9173,85.2319,274.9192,0,U,56728,999,16488,.11691E-3,.762E-5,0
IRIDIUM 178,2023-068V,2026-06-09T11:16:38.883072,14.80220495,.000267,86.6545,28.5856,88.8514,271.3013,0,U,56729,999,16522,.11512E-3,.901E-5,0
IRIDIUM 179,2023-068W,2026-06-09T09:31:34.331232,14.80236972,.0002398,86.6786,37.5726,87.5243,272.6253,0,U,56730,999,16521,.11051E-3,.866E-5,0
