IRIDIUM 156             
1 43576U 18061H   26160.23358969  .00000215  00000+0  69808-4 0  9993
2 43576  86.3965  60.0550 0002103  80.5832 279.5602 14.34219891412237
IRIDIUM 164             
1 43577U 18061J   26160.42387066  .00000090  00000+0  24919-4 0  9990
2 43577  86.3967  60.0156 0002074  88.5148 271.6285 14.34217483412300
IRIDIUM 159             
1 43578U 18061K   26160.46192594  .00000209  00000+0  67402-4 0  9991
2 43578  86.3966  59.9369 0002323  84.7054 275.4407 14.34216894412273
IRIDIUM 180             
1 43922U 19002A   26160.53119108  .00000038  00000+0  65956-5 0  9991
2 43922  86.3972 356.7990 0002249  89.1614 270.9839 14.34217921387899
IRIDIUM 176             
1 43923U 19002B   26160.47863314  .00000728  00000+0  11157-3 0  9998
2 43923  86.6093 356.7653 0002216  91.1113 269.0358 14.72256838398118
IRIDIUM 168             
1 43924U 19002C   26160.45508078  .00000034  00000+0  52432-5 0  9993
2 43924  86.3975 356.9079 0002176  89.0031 271.1414 14.34217665387869
IRIDIUM 173             
1 43925U 19002D   26160.51216284  .00000057  00000+0  13388-4 0  9997
2 43925  86.3972 356.7731 0002242  86.4740 273.6713 14.34217340387850
IRIDIUM 169             
1 43926U 19002E   26160.39243543  .00000237  00000+0  71085-4 0  9990
2 43926  86.4233  28.4526 0002130  70.4730 289.6698 14.38610903389100
IRIDIUM 172             
1 43927U 19002F   26160.50581929  .00000108  00000+0  31621-4 0  9996
2 43927  86.3971 356.7836 0002286  88.8646 271.2811 14.34218726387869
IRIDIUM 175             
1 43928U 19002G   26160.44325074  .00000300  00000+0  82698-4 0  9991
2 43928  86.4507 293.7585 0001495 210.5715 149.5399 14.43608463397869
IRIDIUM 171             
1 43929U 19002H   26160.48679157  .00000141  00000+0  43320-4 0  9992
2 43929  86.3980 357.0970 0002009  86.8339 273.3086 14.34218921387857
IRIDIUM 170             
1 43930U 19002J   26160.48481639  .00000720  00000+0  11028-3 0  9992
2 43930  86.6092 356.7654 0002364  87.8042 272.3445 14.72257235398120
IRIDIUM 167             
1 43931U 19002K   26160.48045023  .00000026  00000+0  22538-5 0  9995
2 43931  86.3972 356.8165 0001857  86.5384 273.6025 14.34217610387851
IRIDIUM 181             
1 56726U 23068S   26160.48022666  .00000290  00000+0  80135-4 0  9995
2 56726  86.4503  60.0122 0002293  90.7196 269.4267 14.43310549161326
IRIDIUM 177             
1 56727U 23068T   26160.48076413  .00001003  00000+0  12861-3 0  9998
2 56727  86.1957 332.4521 0002451  88.5760 271.5742 14.80216629165224
IRIDIUM 174             
1 56728U 23068U   26160.47246007  .00000762  00000+0  11691-3 0  9997
2 56728  86.6100 356.9173 0002572  85.2319 274.9192 14.72253295164880
IRIDIUM 178             
1 56729U 23068V   26160.46989448  .00000901  00000+0  11512-3 0  9997
2 56729  86.6545  28.5856 0002670  88.8514 271.3013 14.80220495165226
IRIDIUM 179             
1 56730U 23068W   26160.39692513  .00000866  00000+0  11051-3 0  9993
2 56730  86.6786  37.5726 0002398  87.5243 272.6253 14.80236972165219
